QIANFAN-60              
1 62790U 25016F   25206.52151408  .00000147  00000+0  20861-3 0  9990
2 62790  88.9835 117.5680 0017052  34.9842 325.2426 13.50966187 28291
QIANFAN-61              
1 62791U 25016G   25206.53402607  .00000121  00000+0  16858-3 0  9995
2 62791  88.9903 117.6291 0016454  34.0006 326.2196 13.50955702 28314
QIANFAN-62              
1 62792U 25016H   25206.46389299  .00000138  00000+0  19547-3 0  9995
2 62792  88.9849 117.5806 0017867  34.0494 326.1800 13.50954617 28297
QIANFAN-63              
1 62793U 25016J   25206.47623228  .00000088  00000+0  11812-3 0  9991
2 62793  88.9855 117.5186 0017769  38.1572 322.0833 13.50951738 28336
QIANFAN-64              
1 62794U 25016K   25206.76426016  .00000121  00000+0  16838-3 0  9991
2 62794  88.9842 117.4879 0015451  32.4542 327.7556 13.50960424 28360
QIANFAN-65              
1 62795U 25016L   25206.52574562  .00000146  00000+0  20678-3 0  9990
2 62795  88.9839 117.5405 0015690  34.6434 325.5736 13.50958284 28314
QIANFAN-66              
1 62796U 25016M   25206.48034249  .00000138  00000+0  19463-3 0  9990
2 62796  88.9858 117.4877 0016700  30.3854 329.8262 13.50960475 28350
QIANFAN-67              
1 62797U 25016N   25206.48460933  .00000143  00000+0  20302-3 0  9994
2 62797  88.9848 117.5267 0016852  36.5588 323.6710 13.50962018 28326
QIANFAN-68              
1 62798U 25016P   25206.48864563  .00000142  00000+0  20095-3 0  9990
2 62798  88.9852 117.5694 0017434  34.8081 325.4206 13.50959443 28308
QIANFAN-69              
1 62799U 25016Q   25206.49269341  .00000141  00000+0  19996-3 0  9992
2 62799  88.9831 117.4656 0017628  35.6760 324.5566 13.50960362 28346
QIANFAN-70              
1 62800U 25016R   25206.50923630  .00000128  00000+0  17889-3 0  9999
2 62800  88.9852 117.5725 0016952  27.0961 333.1071 13.50958844 28302
QIANFAN-71              
1 62801U 25016S   25206.50520264  .00000129  00000+0  18170-3 0  9991
2 62801  88.9846 117.5611 0017625  38.8145 321.4269 13.50958733 28308
QIANFAN-72              
1 62802U 25016T   25206.50093801  .00000135  00000+0  19077-3 0  9998
2 62802  88.9836 117.5838 0021169  43.9048 316.3781 13.50960401 28291
QIANFAN-73              
1 63159U 25046A   25206.47453982  .00000107  00000+0  14704-3 0  9994
2 63159  88.9853 334.4721 0015802 162.9410 197.2276 13.50956697 28476
QIANFAN-74              
1 63160U 25046B   25206.45816840  .00000124  00000+0  17394-3 0  9997
2 63160  88.9853 334.3624 0001997  99.7459 260.3918 13.50960936 28532
QIANFAN-75              
1 63161U 25046C   25206.51986923  .00000106  00000+0  14499-3 0  9998
2 63161  88.9854 334.5877 0016890 166.1196 194.0422 13.50957512 28417
QIANFAN-76              
1 63162U 25046D   25206.81182512  .00000136  00000+0  19199-3 0  9999
2 63162  88.9854 334.5389 0014485 164.9233 195.2353 13.50953363 28463
QIANFAN-77              
1 63163U 25046E   25206.48936095  .00000327  00000+0  22875-3 0  9993
2 63163  88.9852 333.7283 0015995 151.8894 208.3149 13.96000148 28880
QIANFAN-78              
1 63164U 25046F   25206.48279737  .00000121  00000+0  16903-3 0  9994
2 63164  88.9853 334.4382 0015739 168.6679 191.4829 13.50956673 28490
QIANFAN-79              
1 63165U 25046G   25206.80779255  .00000135  00000+0  18984-3 0  9997
2 63165  88.9857 334.5069 0015506 166.0428 194.1155 13.50958924 28497
QIANFAN-80              
1 63166U 25046H   25206.60217081  .00000122  00000+0  16981-3 0  9991
2 63166  88.9854 334.2388 0014353 170.2047 189.9387 13.50959210 28611
QIANFAN-81              
1 63167U 25046J   25206.50748777  .00000108  00000+0  14826-3 0  9992
2 63167  88.9854 334.3169 0015683 159.9713 200.2056 13.50958165 28552
QIANFAN-82              
1 63168U 25046K   25206.46620107  .00000125  00000+0  17466-3 0  9996
2 63168  88.9854 334.3647 0013597 166.6320 193.5194 13.50959648 28537
QIANFAN-83              
1 63169U 25046L   25206.44844637  .00000161  00000+0  19256-3 0  9990
2 63169  88.9854 334.4174 0015064 160.4690 199.7047 13.61928184 28502
QIANFAN-84              
1 63170U 25046M   25206.49508368  .00000185  00000+0  26802-3 0  9996
2 63170  88.9853 334.4948 0016658 164.5500 195.6163 13.50960380 28468
QIANFAN-85              
1 63171U 25046N   25206.49099372  .00000109  00000+0  15015-3 0  9997
2 63171  88.9853 334.3676 0013971 165.7523 194.4025 13.50955957 28535
QIANFAN-86              
1 63172U 25046P   25206.49922540  .00000123  00000+0  17173-3 0  9993
2 63172  88.9856 334.2256 0011748 168.4231 191.7193 13.50956219 28615
QIANFAN-87              
1 63173U 25046Q   25206.76656220 -.00000069  00000+0 -12597-3 0  9999
2 63173  88.9848 334.3153 0012591 163.7229 196.4329 13.50953998 28586
QIANFAN-88              
1 63174U 25046R   25206.48696749  .00000110  00000+0  15185-3 0  9990
2 63174  88.9854 334.2949 0012732 171.9872 188.1485 13.50956411 28571
QIANFAN-89              
1 63175U 25046S   25206.44984529  .00000121  00000+0  16913-3 0  9995
2 63175  88.9854 334.4877 0017308 165.2848 194.8810 13.50961120 28464
QIANFAN-90              
1 63176U 25046T   25206.47862879  .00000124  00000+0  17387-3 0  9991
2 63176  88.9854 334.4569 0014323 162.2407 197.9248 13.50959559 28489
